{
  "type": "FeatureCollection",
  "features": [
    {
      "type": "Feature",
      "properties": {
        "norad_id": 40069,
        "name": "METEOR-M 2",
        "group": "weather",
        "lat": -46.48483224158835,
        "lon": 131.87122950840853,
        "alt_km": 823.9667355438933,
        "timestamp": "2025-12-09T04:51:47.151399+00:00",
        "meta_object_name": "METEOR-M 2",
        "meta_object_id": "2014-037A",
        "meta_epoch": "2025-12-08T21:02:24.135936",
        "meta_mean_motion": 14.21382719,
        "meta_eccentricity": 0.0004822,
        "meta_inclination": 98.4897,
        "meta_ra_of_asc_node": 320.6087,
        "meta_arg_of_pericenter": 222.9303,
        "meta_mean_anomaly": 137.1499,
        "meta_ephemeris_type": 0,
        "meta_classification_type": "U",
        "meta_norad_cat_id": 40069,
        "meta_element_set_no": 999,
        "meta_rev_at_epoch": 59228,
        "meta_bstar": -3.7706e-05,
        "meta_mean_motion_dot": -1.24e-06,
        "meta_mean_motion_ddot": 0,
        "tle_line1": "1 40069U 14037A   25342.87666824 -.00000124  00000+0 -37706-4 0  9992",
        "tle_line2": "2 40069  98.4897 320.6087 0004822 222.9303 137.1499 14.21382719592287"
      },
      "geometry": {
        "type": "Point",
        "coordinates": [
          131.87122950840853,
          -46.48483224158835
        ]
      }
    },
    {
      "type": "Feature",
      "properties": {
        "norad_id": 40267,
        "name": "HIMAWARI-8",
        "group": "weather",
        "lat": 0.004355423521234469,
        "lon": -68.19881209692191,
        "alt_km": 35781.13186701022,
        "timestamp": "2025-12-09T04:51:47.151411+00:00",
        "meta_object_name": "HIMAWARI-8",
        "meta_object_id": "2014-060A",
        "meta_epoch": "2025-12-08T19:24:34.983072",
        "meta_mean_motion": 1.00270625,
        "meta_eccentricity": 0.0001263,
        "meta_inclination": 0.0334,
        "meta_ra_of_asc_node": 222.4763,
        "meta_arg_of_pericenter": 73.5693,
        "meta_mean_anomaly": 213.5731,
        "meta_ephemeris_type": 0,
        "meta_classification_type": "U",
        "meta_norad_cat_id": 40267,
        "meta_element_set_no": 999,
        "meta_rev_at_epoch": 4085,
        "meta_bstar": 0,
        "meta_mean_motion_dot": -2.73e-06,
        "meta_mean_motion_ddot": 0,
        "tle_line1": "1 40267U 14060A   25342.80873823 -.00000273  00000+0  00000+0 0  9996",
        "tle_line2": "2 40267   0.0334 222.4763 0001263  73.5693 213.5731  1.00270625 40854"
      },
      "geometry": {
        "type": "Point",
        "coordinates": [
          -68.19881209692191,
          0.004355423521234469
        ]
      }
    },
    {
      "type": "Feature",
      "properties": {
        "norad_id": 40367,
        "name": "FENGYUN 2G",
        "group": "weather",
        "lat": 0.37377908381352526,
        "lon": -109.23208693975971,
        "alt_km": 35775.75059923091,
        "timestamp": "2025-12-09T04:51:47.151423+00:00",
        "meta_object_name": "FENGYUN 2G",
        "meta_object_id": "2014-090A",
        "meta_epoch": "2025-12-08T17:30:10.330272",
        "meta_mean_motion": 1.00265504,
        "meta_eccentricity": 0.0003085,
        "meta_inclination": 5.1581,
        "meta_ra_of_asc_node": 75.1439,
        "meta_arg_of_pericenter": 197.6958,
        "meta_mean_anomaly": 167.0613,
        "meta_ephemeris_type": 0,
        "meta_classification_type": "U",
        "meta_norad_cat_id": 40367,
        "meta_element_set_no": 999,
        "meta_rev_at_epoch": 4009,
        "meta_bstar": 0,
        "meta_mean_motion_dot": -3e-06,
        "meta_mean_motion_ddot": 0,
        "tle_line1": "1 40367U 14090A   25342.72928623 -.00000300  00000+0  00000+0 0  9991",
        "tle_line2": "2 40367   5.1581  75.1439 0003085 197.6958 167.0613  1.00265504 40092"
      },
      "geometry": {
        "type": "Point",
        "coordinates": [
          -109.23208693975971,
          0.37377908381352526
        ]
      }
    },
    {
      "type": "Feature",
      "properties": {
        "norad_id": 40732,
        "name": "METEOSAT-11 (MSG-4)",
        "group": "weather",
        "lat": 2.7282180508042573,
        "lon": 160.4862150924982,
        "alt_km": 35783.79217053873,
        "timestamp": "2025-12-09T04:51:47.151435+00:00",
        "meta_object_name": "METEOSAT-11 (MSG-4)",
        "meta_object_id": "2015-034A",
        "meta_epoch": "2025-12-08T18:47:08.569248",
        "meta_mean_motion": 1.00266261,
        "meta_eccentricity": 9.78e-05,
        "meta_inclination": 2.7254,
        "meta_ra_of_asc_node": 72.013,
        "meta_arg_of_pericenter": 121.2086,
        "meta_mean_anomaly": 175.7059,
        "meta_ephemeris_type": 0,
        "meta_classification_type": "U",
        "meta_norad_cat_id": 40732,
        "meta_element_set_no": 999,
        "meta_rev_at_epoch": 530,
        "meta_bstar": 0,
        "meta_mean_motion_dot": 6.3e-07,
        "meta_mean_motion_ddot": 0,
        "tle_line1": "1 40732U 15034A   25342.78273807  .00000063  00000+0  00000+0 0  9994",
        "tle_line2": "2 40732   2.7254  72.0130 0000978 121.2086 175.7059  1.00266261  5301"
      },
      "geometry": {
        "type": "Point",
        "coordinates": [
          160.4862150924982,
          2.7282180508042573
        ]
      }
    },
    {
      "type": "Feature",
      "properties": {
        "norad_id": 41105,
        "name": "ELEKTRO-L 2",
        "group": "weather",
        "lat": 5.586134051026187,
        "lon": 136.47659680498631,
        "alt_km": 35797.611615962865,
        "timestamp": "2025-12-09T04:51:47.151467+00:00",
        "meta_object_name": "ELEKTRO-L 2",
        "meta_object_id": "2015-074A",
        "meta_epoch": "2025-12-08T01:32:59.339616",
        "meta_mean_motion": 1.00272095,
        "meta_eccentricity": 0.00038959,
        "meta_inclination": 6.2137,
        "meta_ra_of_asc_node": 72.8831,
        "meta_arg_of_pericenter": 202.1976,
        "meta_mean_anomaly": 170.7351,
        "meta_ephemeris_type": 0,
        "meta_classification_type": "U",
        "meta_norad_cat_id": 41105,
        "meta_element_set_no": 999,
        "meta_rev_at_epoch": 3659,
        "meta_bstar": 0,
        "meta_mean_motion_dot": -1.16e-06,
        "meta_mean_motion_ddot": 0,
        "tle_line1": "1 41105U 15074A   25342.06457569 -.00000116  00000+0  00000+0 0  9993",
        "tle_line2": "2 41105   6.2137  72.8831 0003895 202.1976 170.7351  1.00272095 36596"
      },
      "geometry": {
        "type": "Point",
        "coordinates": [
          136.47659680498631,
          5.586134051026187
        ]
      }
    },
    {
      "type": "Feature",
      "properties": {
        "norad_id": 41752,
        "name": "INSAT-3DR",
        "group": "weather",
        "lat": 0.034014277061849396,
        "lon": -134.97093084644146,
        "alt_km": 35742.98668881646,
        "timestamp": "2025-12-09T04:51:47.151481+00:00",
        "meta_object_name": "INSAT-3DR",
        "meta_object_id": "2016-054A",
        "meta_epoch": "2025-12-08T19:05:29.311296",
        "meta_mean_motion": 1.00270228,
        "meta_eccentricity": 0.0014538,
        "meta_inclination": 0.0824,
        "meta_ra_of_asc_node": 86.7758,
        "meta_arg_of_pericenter": 183.391,
        "meta_mean_anomaly": 168.0107,
        "meta_ephemeris_type": 0,
        "meta_classification_type": "U",
        "meta_norad_cat_id": 41752,
        "meta_element_set_no": 999,
        "meta_rev_at_epoch": 3390,
        "meta_bstar": 0,
        "meta_mean_motion_dot": -7.5e-07,
        "meta_mean_motion_ddot": 0,
        "tle_line1": "1 41752U 16054A   25342.79547814 -.00000075  00000+0  00000+0 0  9997",
        "tle_line2": "2 41752   0.0824  86.7758 0014538 183.3910 168.0107  1.00270228 33902"
      },
      "geometry": {
        "type": "Point",
        "coordinates": [
          -134.97093084644146,
          0.034014277061849396
        ]
      }
    },
    {
      "type": "Feature",
      "properties": {
        "norad_id": 41836,
        "name": "HIMAWARI-9",
        "group": "weather",
        "lat": -0.023069343390245987,
        "lon": -68.07867235339789,
        "alt_km": 35781.39876131998,
        "timestamp": "2025-12-09T04:51:47.151493+00:00",
        "meta_object_name": "HIMAWARI-9",
        "meta_object_id": "2016-064A",
        "meta_epoch": "2025-12-08T19:24:34.983072",
        "meta_mean_motion": 1.0027232,
        "meta_eccentricity": 0.0001231,
        "meta_inclination": 0.0202,
        "meta_ra_of_asc_node": 66.6423,
        "meta_arg_of_pericenter": 196.7775,
        "meta_mean_anomaly": 246.3088,
        "meta_ephemeris_type": 0,
        "meta_classification_type": "U",
        "meta_norad_cat_id": 41836,
        "meta_element_set_no": 999,
        "meta_rev_at_epoch": 3330,
        "meta_bstar": 0,
        "meta_mean_motion_dot": -2.72e-06,
        "meta_mean_motion_ddot": 0,
        "tle_line1": "1 41836U 16064A   25342.80873823 -.00000272  00000+0  00000+0 0  9994",
        "tle_line2": "2 41836   0.0202  66.6423 0001231 196.7775 246.3088  1.00272320 33301"
      },
      "geometry": {
        "type": "Point",
        "coordinates": [
          -68.07867235339789,
          -0.023069343390245987
        ]
      }
    }
  ]
}